H1 CPF  1  HTS 2005 12 30 12  8641 lageos1          NONE
H2  7603901 1155     8820 2005 12 30  0  0  0 2006 01 07  0  0  0   300 1 1  0 0 0
H5  0.2510 
H9 
10 0 53735   3000.00000  0   -1326963.361    4016052.262  -11582627.347
20 0      5367.924646      2609.840903       285.651302
10 0 53735   3300.00001  0     306772.304    4723694.886  -11386642.686
20 0      5503.010447      2099.470283      1018.819033
10 0 53735   3600.00000  0    1962271.026    5271507.595  -10973276.897
20 0      5512.474464      1546.861580      1732.588757
10 0 53735   3900.00000  0    3601509.351    5649155.797  -10350371.862
20 0      5394.561541       967.709564      2413.553422
10 0 53735   4200.00000  0    5186381.746    5851097.642   -9529711.857
20 0      5150.486246       378.204108      3048.874595
10 0 53735   4500.00000  0    6679594.380    5876671.871   -8526819.785
20 0      4784.441618      -205.375481      3626.502775
10 0 53735   4800.00000  0    8045552.068    5730063.299   -7360688.245
20 0      4303.544353      -767.069400      4135.391090
10 0 53735   5100.00000  0    9251218.976    5420146.085   -6053447.807
20 0      3717.714534     -1291.641713      4565.699728
10 0 53735   5400.00000  0   10266933.291    4960207.440   -4629975.778
20 0      3039.488902     -1764.971667      4908.987608
10 0 53735   5700.00000  0   11067155.940    4367557.033   -3117449.883
20 0      2283.768068     -2174.422818      5158.387149
10 0 53735   6000.00001  0   11631133.791    3663030.171   -1544852.648
20 0      1467.499782     -2509.180397      5308.757389
10 0 53735   6300.00000  0   11943458.756    2870395.774      57566.281
20 0       609.302544     -2760.547089      5356.810395
10 0 53735   6600.00000  0   11994505.840    2015683.046    1658861.101
20 0      -270.963726     -2922.187668      5301.205926
10 0 53735   6900.00000  0   11780735.558    1126443.548    3227983.868
20 0     -1152.670820     -2990.313667      5142.609764
10 0 53735   7200.00000  0   11304849.246     230967.824    4734390.072
20 0     -2014.927718     -2963.800592      4883.711865
10 0 53735   7500.00000  0   10575789.540    -642522.279    6148643.267
20 0     -2837.104980     -2844.231933      4529.201571
10 0 53735   7800.00000  0    9608582.555   -1466683.056    7443005.648
20 0     -3599.363083     -2635.866550      4085.698603
10 0 53735   8100.00000  0    8424022.921   -2215836.960    8592001.302
20 0     -4283.169105     -2345.528586      3561.640114
10 0 53735   8400.00000  0    7048207.508   -2866716.185    9572939.186
20 0     -4871.786203     -1982.421761      2967.125515
10 0 53735   8700.00001  0    5511928.265   -3399139.713   10366383.584
20 0     -5350.721012     -1557.872556      2313.722123
10 0 53735   9000.00000  0    3849938.877   -3796603.490   10956560.889
20 0     -5708.115288     -1085.009172      1614.235788
10 0 53735   9300.00000  0    2100113.822   -4046765.767   11331692.952
20 0     -5935.069758      -578.385366       882.451647
10 0 53735   9600.00000  0     302521.714   -4141812.673   11484248.915
20 0     -6025.890206       -53.560143       132.851020
10 0 53735   9900.00000  0   -1501562.535   -4078692.615   11411109.355
20 0     -5978.248259       473.354242      -619.688999
10 0 53735  10200.00000  0   -3270680.356   -3859212.008   11113638.560
20 0     -5793.251999       986.162495     -1360.206437
10 0 53735  10500.00000  0   -4964219.482   -3489988.940   10597662.808
20 0     -5475.423920      1469.060756     -2073.969047
10 0 53735  10800.00000  0   -6543423.344   -2982265.641    9873354.574
20 0     -5032.586027      1907.101130     -2746.785657
10 0 53735  11100.00000  0   -7972352.309   -2351584.856    8955024.742
20 0     -4475.654316      2286.632046     -3365.306887
10 0 53735  11400.00001  0   -9218770.288   -1617339.474    7860827.146
20 0     -3818.347894      2595.700642     -3917.307593
10 0 53735  11700.00000  0  -10254932.278    -802208.757    6612382.052
20 0     -3076.820984      2824.404393     -4391.943687
10 0 53735  12000.00000  0  -11058251.264      68501.887    5234327.282
20 0     -2269.228776      2965.180782     -4779.976588
10 0 53735  12300.00000  0  -11611826.606     967597.573    3753807.620
20 0     -1415.240449      3013.025935     -5073.959348
10 0 53735  12600.00000  0  -11904820.291    1866784.683    2199914.754
20 0      -535.514658      2965.635626     -5268.379584
10 0 53735  12900.00000  0  -11932672.283    2737491.765     603091.264
20 0       348.845769      2823.464970     -5359.755756
10 0 53735  13200.00000  0  -11697151.338    3551696.044   -1005487.033
20 0      1216.842526      2589.706237     -5346.685108
10 0 53735  13500.00000  0  -11206242.851    4282731.253   -2594535.873
20 0      2048.116822      2270.187260     -5229.843451
10 0 53735  13800.00000  0  -10473880.265    4906053.725   -4133280.280
20 0      2823.454792      1873.195764     -5011.938809
10 0 53735  14100.00001  0   -9519531.081    5399945.588   -5592051.885
20 0      3525.249240      1409.237294     -4697.622391
10 0 53735  14400.00000  0   -8367652.391    5746136.584   -6942853.737
20 0      4137.905999       890.736417     -4293.361805
10 0 53735  14700.00000  0   -7047033.965    5930329.089   -8159882.153
20 0      4648.186079       331.692175     -3807.282478
10 0 53735  15000.00000  0   -5590049.043    5942614.352   -9219997.036
20 0      5045.478059      -252.700720     -3248.983845
10 0 53735  15300.00000  0   -4031834.228    5777771.360  -10103134.072
20 0      5321.998251      -846.453705     -2629.336646
10 0 53735  15600.00000  0   -2409420.185    5435443.036  -10792654.002
20 0      5472.918669     -1433.198671     -1960.266985
10 0 53735  15900.00000  0    -760834.554    4920187.480  -11275625.707
20 0      5496.424665     -1996.605210     -1254.531798
10 0 53735  16200.00000  0     875802.233    4241404.673  -11543041.133
20 0      5393.705261     -2520.792226      -525.489391
10 0 53735  16500.00000  0    2463168.611    3413141.514  -11589960.973
20 0      5168.879918     -2990.726281       213.132235
10 0 53735  16800.00001  0    3965602.531    2453780.207  -11415590.770
20 0      4828.865751     -3392.599801       947.467365
10 0 53735  17100.00000  0    5349913.863    1385617.011  -11023287.559
20 0      4383.189309     -3714.182712      1663.743403
10 0 53735  17400.00000  0    6586132.524     234340.254  -10420497.580
20 0      3843.747062     -3945.141432      2348.509444
10 0 53735  17700.00000  0    7648177.591    -971581.716   -9618625.884
20 0      3224.518817     -4077.319290      2988.861490
10 0 53735  18000.00000  0    8514433.913   -2201590.184   -8632839.039
20 0      2541.238338     -4104.972482      3572.663103
10 0 53735  18300.00000  0    9168224.047   -3423789.088   -7481802.522
20 0      1811.025758     -4024.955542      4088.759706
10 0 53735  18600.00000  0    9598164.852   -4605745.354   -6187355.091
20 0      1051.987080     -3836.850363      4527.184007
10 0 53735  18900.00000  0    9798399.759   -5715318.766   -4774123.275
20 0       282.787136     -3543.033142      4879.349123
10 0 53735  19200.00000  0    9768699.902   -6721501.986   -3269080.270
20 0      -477.796329     -3148.674416      5138.225307
10 0 53735  19500.00001  0    9514429.751   -7595250.069   -1701054.877
20 0     -1211.328406     -2661.668499      5298.495551
10 0 53735  19800.00000  0    9046375.822   -8310277.946    -100197.537
20 0     -1900.172247     -2092.490276      5356.685023
10 0 53735  20100.00000  0    8380440.340   -8843804.009    1502587.880
20 0     -2527.932177     -1453.979350      5311.259194
10 0 53735  20400.00000  0    7537205.332   -9177218.337    3076236.432
20 0     -3079.872241      -761.054073      5162.685886
10 0 53735  20700.00000  0    6541376.428   -9296655.223    4590127.159
20 0     -3543.297470       -30.360712      4913.457326
10 0 53735  21000.00000  0    5421119.422   -9193451.693    6014688.392
20 0     -3907.885606       720.134344      4568.069480
10 0 53735  21300.00000  0    4207306.167   -8864476.382    7321990.275
20 0     -4165.958129      1471.599076      4132.957311
10 0 53735  21600.00000  0    2932689.461   -8312316.596    8486311.239
20 0     -4312.681110      2204.824696      3616.386047
10 0 53735  21900.00000  0    1631029.157   -7545315.254    9484665.435
20 0     -4346.188590      2900.735033      3028.299976
10 0 53735  22200.00001  0     336193.511   -6577453.811   10297278.778
20 0     -4267.623683      3540.901538      2380.131699
10 0 53735  22500.00000  0    -918739.167   -5428081.730   10908002.348
20 0     -4081.095372      4108.048663      1684.575997
10 0 53735  22800.00000  0   -2102353.330   -4121497.676   11304653.278
20 0     -3793.551821      4586.534562       955.333515
10 0 53735  23100.00000  0   -3185718.882   -2686391.993   11479274.944
20 0     -3414.573696      4962.792912       206.830069
10 0 53735  23400.00000  0   -4143140.567   -1155164.123   11428310.061
20 0     -2956.093372      5225.722679      -546.082227
10 0 53735  23700.00000  0   -4952812.990     436867.581   11152682.205
20 0     -2432.048026      5367.013906     -1288.435402
10 0 53735  24000.00000  0   -5597362.862    2052342.880   10657783.348
20 0     -1857.976615      5381.399196     -2005.460614
10 0 53735  24300.00000  0   -6064263.382    3652799.900    9953367.137
20 0     -1250.572545      5266.822656     -2682.900280
10 0 53735  24600.00000  0   -6346109.420    5199652.926    9053349.877
20 0      -627.205301      5024.520434     -3307.309979
10 0 53735  24900.00001  0   -6440746.302    6655180.658    7975523.411
20 0        -5.425299      4659.009539     -3866.342767
10 0 53735  25200.00000  0   -6351249.407    7983497.237    6741186.232
20 0       597.533010      4177.984398     -4349.008750
10 0 53735  25500.00000  0   -6085756.340    9151478.670    5374701.301
20 0      1165.234545      3592.123590     -4745.903056
